[
  {
    "OBJECT_NAME": "COSMOS 1850",
    "OBJECT_ID": "1987-049A",
    "EPOCH": "2026-06-12T03:21:05.927616",
    "MEAN_MOTION": 14.3413094,
    "ECCENTRICITY": 0.00136802,
    "INCLINATION": 74.0396,
    "RA_OF_ASC_NODE": 66.0709,
    "ARG_OF_PERICENTER": 82.0257,
    "MEAN_ANOMALY": 278.2447,
    "EPHEMERIS_TYPE": 0,
    "CLASSIFICATION_TYPE": "U",
    "NORAD_CAT_ID": 18095,
    "ELEMENT_SET_NO": 999,
    "REV_AT_EPOCH": 3918,
    "BSTAR": 0.000045405774,
    "MEAN_MOTION_DOT": 0.00000101,
    "MEAN_MOTION_DDOT": 0
  }
]
